{
  "type": "FeatureCollection",
  "features": [
    {
      "type": "Feature",
      "properties": {
        "norad_id": 42917,
        "name": "QZS-3 (QZSS/PRN 199)",
        "group": "gnss",
        "lat": -0.035022134915033344,
        "lon": 160.93823407670973,
        "alt_km": 35788.98623465737,
        "timestamp": "2025-12-14T20:40:32.014416+00:00",
        "meta_object_name": "QZS-3 (QZSS/PRN 199)",
        "meta_object_id": "2017-048A",
        "meta_epoch": "2025-12-14T07:10:25.849056",
        "meta_mean_motion": 1.00271466,
        "meta_eccentricity": 0.00019276,
        "meta_inclination": 0.0598,
        "meta_ra_of_asc_node": 189.5707,
        "meta_arg_of_pericenter": 81.002,
        "meta_mean_anomaly": 47.3172,
        "meta_ephemeris_type": 0,
        "meta_classification_type": "U",
        "meta_norad_cat_id": 42917,
        "meta_element_set_no": 999,
        "meta_rev_at_epoch": 3040,
        "meta_bstar": 0,
        "meta_mean_motion_dot": -3.3e-06,
        "meta_mean_motion_ddot": 0,
        "tle_line1": "1 42917U 17048A   25348.29891029 -.00000330  00000+0  00000+0 0  9990",
        "tle_line2": "2 42917   0.0598 189.5707 0001927  81.0020  47.3172  1.00271466 30402"
      },
      "geometry": {
        "type": "Point",
        "coordinates": [
          160.93823407670973,
          -0.035022134915033344
        ]
      }
    },
    {
      "type": "Feature",
      "properties": {
        "norad_id": 42939,
        "name": "COSMOS 2522 (752)",
        "group": "gnss",
        "lat": 50.7441901132437,
        "lon": -18.366852876208146,
        "alt_km": 19128.362827640216,
        "timestamp": "2025-12-14T20:40:32.014428+00:00",
        "meta_object_name": "COSMOS 2522 (752)",
        "meta_object_id": "2017-055A",
        "meta_epoch": "2025-12-10T22:48:12.074400",
        "meta_mean_motion": 2.1310181,
        "meta_eccentricity": 0.00064932,
        "meta_inclination": 64.076,
        "meta_ra_of_asc_node": 198.29,
        "meta_arg_of_pericenter": 225.3551,
        "meta_mean_anomaly": 134.6611,
        "meta_ephemeris_type": 0,
        "meta_classification_type": "U",
        "meta_norad_cat_id": 42939,
        "meta_element_set_no": 999,
        "meta_rev_at_epoch": 6396,
        "meta_bstar": 0,
        "meta_mean_motion_dot": 5.1e-07,
        "meta_mean_motion_ddot": 0,
        "tle_line1": "1 42939U 17055A   25344.95013975  .00000051  00000+0  00000+0 0  9996",
        "tle_line2": "2 42939  64.0760 198.2900 0006493 225.3551 134.6611  2.13101810 63969"
      },
      "geometry": {
        "type": "Point",
        "coordinates": [
          -18.366852876208146,
          50.7441901132437
        ]
      }
    },
    {
      "type": "Feature",
      "properties": {
        "norad_id": 42965,
        "name": "QZS-4 (QZSS/PRN 195)",
        "group": "gnss",
        "lat": 2.7931276182621576,
        "lon": 162.52647310929152,
        "alt_km": 35879.98992954265,
        "timestamp": "2025-12-14T20:40:32.014447+00:00",
        "meta_object_name": "QZS-4 (QZSS/PRN 195)",
        "meta_object_id": "2017-062A",
        "meta_epoch": "2025-12-13T20:54:22.913856",
        "meta_mean_motion": 1.00252772,
        "meta_eccentricity": 0.07517758,
        "meta_inclination": 40.2252,
        "meta_ra_of_asc_node": 345.8556,
        "meta_arg_of_pericenter": 271.5811,
        "meta_mean_anomaly": 275.2692,
        "meta_ephemeris_type": 0,
        "meta_classification_type": "U",
        "meta_norad_cat_id": 42965,
        "meta_element_set_no": 999,
        "meta_rev_at_epoch": 2994,
        "meta_bstar": 0,
        "meta_mean_motion_dot": -3.58e-06,
        "meta_mean_motion_ddot": 0,
        "tle_line1": "1 42965U 17062A   25347.87109854 -.00000358  00000+0  00000+0 0  9990",
        "tle_line2": "2 42965  40.2252 345.8556 0751775 271.5811 275.2692  1.00252772 29949"
      },
      "geometry": {
        "type": "Point",
        "coordinates": [
          162.52647310929152,
          2.7931276182621576
        ]
      }
    },
    {
      "type": "Feature",
      "properties": {
        "norad_id": 43001,
        "name": "BEIDOU-3 M1 (C19)",
        "group": "gnss",
        "lat": -48.802536830625876,
        "lon": 20.17070193949827,
        "alt_km": 21507.979932734463,
        "timestamp": "2025-12-14T20:40:32.014470+00:00",
        "meta_object_name": "BEIDOU-3 M1 (C19)",
        "meta_object_id": "2017-069A",
        "meta_epoch": "2025-12-13T08:19:00.908256",
        "meta_mean_motion": 1.86231197,
        "meta_eccentricity": 0.00092543,
        "meta_inclination": 56.5278,
        "meta_ra_of_asc_node": 69.2133,
        "meta_arg_of_pericenter": 303.3207,
        "meta_mean_anomaly": 56.6091,
        "meta_ephemeris_type": 0,
        "meta_classification_type": "U",
        "meta_norad_cat_id": 43001,
        "meta_element_set_no": 999,
        "meta_rev_at_epoch": 5514,
        "meta_bstar": 0,
        "meta_mean_motion_dot": -7.8e-07,
        "meta_mean_motion_ddot": 0,
        "tle_line1": "1 43001U 17069A   25347.34653829 -.00000078  00000+0  00000+0 0  9996",
        "tle_line2": "2 43001  56.5278  69.2133 0009254 303.3207  56.6091  1.86231197 55145"
      },
      "geometry": {
        "type": "Point",
        "coordinates": [
          20.17070193949827,
          -48.802536830625876
        ]
      }
    },
    {
      "type": "Feature",
      "properties": {
        "norad_id": 43002,
        "name": "BEIDOU-3 M2 (C20)",
        "group": "gnss",
        "lat": -19.04235287815256,
        "lon": 56.02608454253261,
        "alt_km": 21513.079796674338,
        "timestamp": "2025-12-14T20:40:32.014483+00:00",
        "meta_object_name": "BEIDOU-3 M2 (C20)",
        "meta_object_id": "2017-069B",
        "meta_epoch": "2025-12-12T17:57:03.193632",
        "meta_mean_motion": 1.86230645,
        "meta_eccentricity": 0.00063664,
        "meta_inclination": 56.5266,
        "meta_ra_of_asc_node": 69.2696,
        "meta_arg_of_pericenter": 331.453,
        "meta_mean_anomaly": 28.5312,
        "meta_ephemeris_type": 0,
        "meta_classification_type": "U",
        "meta_norad_cat_id": 43002,
        "meta_element_set_no": 999,
        "meta_rev_at_epoch": 5512,
        "meta_bstar": 0,
        "meta_mean_motion_dot": -7.4e-07,
        "meta_mean_motion_ddot": 0,
        "tle_line1": "1 43002U 17069B   25346.74795363 -.00000074  00000+0  00000+0 0  9996",
        "tle_line2": "2 43002  56.5266  69.2696 0006366 331.4530  28.5312  1.86230645 55128"
      },
      "geometry": {
        "type": "Point",
        "coordinates": [
          56.02608454253261,
          -19.04235287815256
        ]
      }
    },
    {
      "type": "Feature",
      "properties": {
        "norad_id": 43055,
        "name": "GSAT0215 (GALILEO 19)",
        "group": "gnss",
        "lat": 16.229680333804733,
        "lon": -121.7140067286646,
        "alt_km": 23217.038959336638,
        "timestamp": "2025-12-14T20:40:32.014495+00:00",
        "meta_object_name": "GSAT0215 (GALILEO 19)",
        "meta_object_id": "2017-079A",
        "meta_epoch": "2025-12-11T21:30:24.060384",
        "meta_mean_motion": 1.704739,
        "meta_eccentricity": 0.00012658,
        "meta_inclination": 55.1303,
        "meta_ra_of_asc_node": 226.661,
        "meta_arg_of_pericenter": 350.6161,
        "meta_mean_anomaly": 9.46,
        "meta_ephemeris_type": 0,
        "meta_classification_type": "U",
        "meta_norad_cat_id": 43055,
        "meta_element_set_no": 999,
        "meta_rev_at_epoch": 4979,
        "meta_bstar": 0,
        "meta_mean_motion_dot": 1.3e-07,
        "meta_mean_motion_ddot": 0,
        "tle_line1": "1 43055U 17079A   25345.89611181  .00000013  00000+0  00000+0 0  9997",
        "tle_line2": "2 43055  55.1303 226.6610 0001265 350.6161   9.4600  1.70473900 49794"
      },
      "geometry": {
        "type": "Point",
        "coordinates": [
          -121.7140067286646,
          16.229680333804733
        ]
      }
    },
    {
      "type": "Feature",
      "properties": {
        "norad_id": 43056,
        "name": "GSAT0216 (GALILEO 20)",
        "group": "gnss",
        "lat": -17.220723093717147,
        "lon": 59.055564153736114,
        "alt_km": 23228.574360988896,
        "timestamp": "2025-12-14T20:40:32.014506+00:00",
        "meta_object_name": "GSAT0216 (GALILEO 20)",
        "meta_object_id": "2017-079B",
        "meta_epoch": "2025-12-13T08:39:13.176288",
        "meta_mean_motion": 1.70474029,
        "meta_eccentricity": 0.00023036,
        "meta_inclination": 55.1302,
        "meta_ra_of_asc_node": 226.6206,
        "meta_arg_of_pericenter": 326.735,
        "meta_mean_anomaly": 33.3311,
        "meta_ephemeris_type": 0,
        "meta_classification_type": "U",
        "meta_norad_cat_id": 43056,
        "meta_element_set_no": 999,
        "meta_rev_at_epoch": 4983,
        "meta_bstar": 0,
        "meta_mean_motion_dot": 2.3e-07,
        "meta_mean_motion_ddot": 0,
        "tle_line1": "1 43056U 17079B   25347.36056917  .00000023  00000+0  00000+0 0  9993",
        "tle_line2": "2 43056  55.1302 226.6206 0002303 326.7350  33.3311  1.70474029 49836"
      },
      "geometry": {
        "type": "Point",
        "coordinates": [
          59.055564153736114,
          -17.220723093717147
        ]
      }
    }
  ]
}